{
  "type": "FeatureCollection",
  "features": [
    {
      "type": "Feature",
      "properties": {
        "norad_id": 55973,
        "name": "TIANMU-1 03",
        "group": "weather",
        "lat": -43.429423256737124,
        "lon": 162.64884962410989,
        "alt_km": 449.5178879035675,
        "timestamp": "2025-12-18T15:47:10.862814+00:00",
        "meta_object_name": "TIANMU-1 03",
        "meta_object_id": "2023-039A",
        "meta_epoch": "2025-12-18T06:37:34.799808",
        "meta_mean_motion": 15.41082724,
        "meta_eccentricity": 0.00041846,
        "meta_inclination": 97.5101,
        "meta_ra_of_asc_node": 155.0825,
        "meta_arg_of_pericenter": 45.5781,
        "meta_mean_anomaly": 314.5807,
        "meta_ephemeris_type": 0,
        "meta_classification_type": "U",
        "meta_norad_cat_id": 55973,
        "meta_element_set_no": 999,
        "meta_rev_at_epoch": 15291,
        "meta_bstar": 0.00033021678,
        "meta_mean_motion_dot": 0.00013577,
        "meta_mean_motion_ddot": 0,
        "tle_line1": "1 55973U 23039A   25352.27609722  .00013577  00000+0  33022-3 0  9993",
        "tle_line2": "2 55973  97.5101 155.0825 0004184  45.5781 314.5807 15.41082724152917"
      },
      "geometry": {
        "type": "Point",
        "coordinates": [
          162.64884962410989,
          -43.429423256737124
        ]
      }
    },
    {
      "type": "Feature",
      "properties": {
        "norad_id": 55974,
        "name": "TIANMU-1 04",
        "group": "weather",
        "lat": 75.38143467590396,
        "lon": 124.30981902427595,
        "alt_km": 432.2061294589803,
        "timestamp": "2025-12-18T15:47:10.862832+00:00",
        "meta_object_name": "TIANMU-1 04",
        "meta_object_id": "2023-039B",
        "meta_epoch": "2025-12-18T06:06:14.287392",
        "meta_mean_motion": 15.41422595,
        "meta_eccentricity": 0.00047922,
        "meta_inclination": 97.5033,
        "meta_ra_of_asc_node": 154.2489,
        "meta_arg_of_pericenter": 39.5643,
        "meta_mean_anomaly": 320.5952,
        "meta_ephemeris_type": 0,
        "meta_classification_type": "U",
        "meta_norad_cat_id": 55974,
        "meta_element_set_no": 999,
        "meta_rev_at_epoch": 15291,
        "meta_bstar": 0.00033965865,
        "meta_mean_motion_dot": 0.00014128,
        "meta_mean_motion_ddot": 0,
        "tle_line1": "1 55974U 23039B   25352.25433203  .00014128  00000+0  33966-3 0  9991",
        "tle_line2": "2 55974  97.5033 154.2489 0004792  39.5643 320.5952 15.41422595152916"
      },
      "geometry": {
        "type": "Point",
        "coordinates": [
          124.30981902427595,
          75.38143467590396
        ]
      }
    },
    {
      "type": "Feature",
      "properties": {
        "norad_id": 55975,
        "name": "TIANMU-1 05",
        "group": "weather",
        "lat": 76.49764110695224,
        "lon": 8.471989098028454,
        "alt_km": 433.5880427758848,
        "timestamp": "2025-12-18T15:47:10.862845+00:00",
        "meta_object_name": "TIANMU-1 05",
        "meta_object_id": "2023-039C",
        "meta_epoch": "2025-12-18T05:59:55.006944",
        "meta_mean_motion": 15.41038479,
        "meta_eccentricity": 0.00042113,
        "meta_inclination": 97.508,
        "meta_ra_of_asc_node": 154.7371,
        "meta_arg_of_pericenter": 63.202,
        "meta_mean_anomaly": 296.9657,
        "meta_ephemeris_type": 0,
        "meta_classification_type": "U",
        "meta_norad_cat_id": 55975,
        "meta_element_set_no": 999,
        "meta_rev_at_epoch": 15289,
        "meta_bstar": 0.00031254413,
        "meta_mean_motion_dot": 0.00012825,
        "meta_mean_motion_ddot": 0,
        "tle_line1": "1 55975U 23039C   25352.24994221  .00012825  00000+0  31254-3 0  9993",
        "tle_line2": "2 55975  97.5080 154.7371 0004211  63.2020 296.9657 15.41038479152892"
      },
      "geometry": {
        "type": "Point",
        "coordinates": [
          8.471989098028454,
          76.49764110695224
        ]
      }
    },
    {
      "type": "Feature",
      "properties": {
        "norad_id": 55976,
        "name": "TIANMU-1 06",
        "group": "weather",
        "lat": 65.32037766555774,
        "lon": 138.9443852731956,
        "alt_km": 432.36912428112464,
        "timestamp": "2025-12-18T15:47:10.862855+00:00",
        "meta_object_name": "TIANMU-1 06",
        "meta_object_id": "2023-039D",
        "meta_epoch": "2025-12-18T06:09:06.199200",
        "meta_mean_motion": 15.41474213,
        "meta_eccentricity": 0.00044861,
        "meta_inclination": 97.509,
        "meta_ra_of_asc_node": 155.2132,
        "meta_arg_of_pericenter": 57.6707,
        "meta_mean_anomaly": 302.4973,
        "meta_ephemeris_type": 0,
        "meta_classification_type": "U",
        "meta_norad_cat_id": 55976,
        "meta_element_set_no": 999,
        "meta_rev_at_epoch": 15291,
        "meta_bstar": 0.00033611122,
        "meta_mean_motion_dot": 0.00014003,
        "meta_mean_motion_ddot": 0,
        "tle_line1": "1 55976U 23039D   25352.25632175  .00014003  00000+0  33611-3 0  9991",
        "tle_line2": "2 55976  97.5090 155.2132 0004486  57.6707 302.4973 15.41474213152915"
      },
      "geometry": {
        "type": "Point",
        "coordinates": [
          138.9443852731956,
          65.32037766555774
        ]
      }
    },
    {
      "type": "Feature",
      "properties": {
        "norad_id": 56232,
        "name": "FENGYUN 3G",
        "group": "weather",
        "lat": 49.49739772999711,
        "lon": -62.6223696656548,
        "alt_km": 396.83282128967676,
        "timestamp": "2025-12-18T15:47:10.862865+00:00",
        "meta_object_name": "FENGYUN 3G",
        "meta_object_id": "2023-055A",
        "meta_epoch": "2025-12-18T04:34:07.819392",
        "meta_mean_motion": 15.53965066,
        "meta_eccentricity": 0.00093314,
        "meta_inclination": 49.9922,
        "meta_ra_of_asc_node": 199.3209,
        "meta_arg_of_pericenter": 173.3453,
        "meta_mean_anomaly": 186.764,
        "meta_ephemeris_type": 0,
        "meta_classification_type": "U",
        "meta_norad_cat_id": 56232,
        "meta_element_set_no": 999,
        "meta_rev_at_epoch": 15187,
        "meta_bstar": 0.00041654661,
        "meta_mean_motion_dot": 0.00027113,
        "meta_mean_motion_ddot": 0,
        "tle_line1": "1 56232U 23055A   25352.19036828  .00027113  00000+0  41655-3 0  9994",
        "tle_line2": "2 56232  49.9922 199.3209 0009331 173.3453 186.7640 15.53965066151870"
      },
      "geometry": {
        "type": "Point",
        "coordinates": [
          -62.6223696656548,
          49.49739772999711
        ]
      }
    },
    {
      "type": "Feature",
      "properties": {
        "norad_id": 57166,
        "name": "METEOR-M2 3",
        "group": "weather",
        "lat": -30.931461247612102,
        "lon": 51.31935976680232,
        "alt_km": 815.3454473770698,
        "timestamp": "2025-12-18T15:47:10.862876+00:00",
        "meta_object_name": "METEOR-M2 3",
        "meta_object_id": "2023-091A",
        "meta_epoch": "2025-12-18T07:30:05.255712",
        "meta_mean_motion": 14.24026706,
        "meta_eccentricity": 0.00035883,
        "meta_inclination": 98.6372,
        "meta_ra_of_asc_node": 45.7544,
        "meta_arg_of_pericenter": 352.3854,
        "meta_mean_anomaly": 7.727,
        "meta_ephemeris_type": 0,
        "meta_classification_type": "U",
        "meta_norad_cat_id": 57166,
        "meta_element_set_no": 999,
        "meta_rev_at_epoch": 12877,
        "meta_bstar": 2.3711854e-05,
        "meta_mean_motion_dot": 1.1e-07,
        "meta_mean_motion_ddot": 0,
        "tle_line1": "1 57166U 23091A   25352.31256083  .00000011  00000+0  23712-4 0  9995",
        "tle_line2": "2 57166  98.6372  45.7544 0003588 352.3854   7.7270 14.24026706128775"
      },
      "geometry": {
        "type": "Point",
        "coordinates": [
          51.31935976680232,
          -30.931461247612102
        ]
      }
    },
    {
      "type": "Feature",
      "properties": {
        "norad_id": 57399,
        "name": "TIANMU-1 07",
        "group": "weather",
        "lat": -29.54290205290962,
        "lon": -141.7817052401279,
        "alt_km": 490.3124688003136,
        "timestamp": "2025-12-18T15:47:10.862887+00:00",
        "meta_object_name": "TIANMU-1 07",
        "meta_object_id": "2023-101A",
        "meta_epoch": "2025-12-18T07:00:51.185376",
        "meta_mean_motion": 15.28150496,
        "meta_eccentricity": 0.00054046,
        "meta_inclination": 97.2874,
        "meta_ra_of_asc_node": 42.02,
        "meta_arg_of_pericenter": 67.7514,
        "meta_mean_anomaly": 292.4299,
        "meta_ephemeris_type": 0,
        "meta_classification_type": "U",
        "meta_norad_cat_id": 57399,
        "meta_element_set_no": 999,
        "meta_rev_at_epoch": 13400,
        "meta_bstar": 0.00023923131,
        "meta_mean_motion_dot": 6.494e-05,
        "meta_mean_motion_ddot": 0,
        "tle_line1": "1 57399U 23101A   25352.29225909  .00006494  00000+0  23923-3 0  9999",
        "tle_line2": "2 57399  97.2874  42.0200 0005404  67.7514 292.4299 15.28150496134009"
      },
      "geometry": {
        "type": "Point",
        "coordinates": [
          -141.7817052401279,
          -29.54290205290962
        ]
      }
    }
  ]
}